[{"OBJECT_NAME":"HULIANWANG DIGUI-01","OBJECT_ID":"2024-240A","EPOCH":"2026-03-26T11:59:23.623008","MEAN_MOTION":13.24410918,"ECCENTRICITY":0.0002046,"INCLINATION":86.5054,"RA_OF_ASC_NODE":11.1185,"ARG_OF_PERICENTER":79.7448,"MEAN_ANOMALY":280.3916,"EPHEMERIS_TYPE":0,"CLASSIFICATION_TYPE":"U","NORAD_CAT_ID":62323,"ELEMENT_SET_NO":999,"REV_AT_EPOCH":6169,"BSTAR":0.00012623,"MEAN_MOTION_DOT":6.9e-7,"MEAN_MOTION_DDOT":0},{"OBJECT_NAME":"HULIANWANG DIGUI-02","OBJECT_ID":"2024-240B","EPOCH":"2026-03-26T12:10:07.202784","MEAN_MOTION":13.24410377,"ECCENTRICITY":0.0002019,"INCLINATION":86.5083,"RA_OF_ASC_NODE":11.2519,"ARG_OF_PERICENTER":80.69,"MEAN_ANOMALY":279.4462,"EPHEMERIS_TYPE":0,"CLASSIFICATION_TYPE":"U","NORAD_CAT_ID":62324,"ELEMENT_SET_NO":999,"REV_AT_EPOCH":6170,"BSTAR":0.0001411,"MEAN_MOTION_DOT":7.5e-7,"MEAN_MOTION_DDOT":0},{"OBJECT_NAME":"HULIANWANG DIGUI-03","OBJECT_ID":"2024-240C","EPOCH":"2026-03-26T11:48:19.938816","MEAN_MOTION":13.24409787,"ECCENTRICITY":0.0002059,"INCLINATION":86.5036,"RA_OF_ASC_NODE":11.0371,"ARG_OF_PERICENTER":77.7654,"MEAN_ANOMALY":282.371,"EPHEMERIS_TYPE":0,"CLASSIFICATION_TYPE":"U","NORAD_CAT_ID":62325,"ELEMENT_SET_NO":999,"REV_AT_EPOCH":6169,"BSTAR":0.00012975,"MEAN_MOTION_DOT":7.0e-7,"MEAN_MOTION_DDOT":0},{"OBJECT_NAME":"HULIANWANG DIGUI-04","OBJECT_ID":"2024-240D","EPOCH":"2026-03-26T11:37:30.285984","MEAN_MOTION":13.24409954,"ECCENTRICITY":0.0002142,"INCLINATION":86.5046,"RA_OF_ASC_NODE":11.0731,"ARG_OF_PERICENTER":76.3475,"MEAN_ANOMALY":283.7897,"EPHEMERIS_TYPE":0,"CLASSIFICATION_TYPE":"U","NORAD_CAT_ID":62326,"ELEMENT_SET_NO":999,"REV_AT_EPOCH":6169,"BSTAR":9.4291e-5,"MEAN_MOTION_DOT":5.5e-7,"MEAN_MOTION_DDOT":0},{"OBJECT_NAME":"HULIANWANG DIGUI-05","OBJECT_ID":"2024-240E","EPOCH":"2026-03-26T11:26:42.093312","MEAN_MOTION":13.24410717,"ECCENTRICITY":0.0002131,"INCLINATION":86.5098,"RA_OF_ASC_NODE":11.3058,"ARG_OF_PERICENTER":74.1484,"MEAN_ANOMALY":285.9885,"EPHEMERIS_TYPE":0,"CLASSIFICATION_TYPE":"U","NORAD_CAT_ID":62327,"ELEMENT_SET_NO":999,"REV_AT_EPOCH":6169,"BSTAR":6.5003e-5,"MEAN_MOTION_DOT":4.3e-7,"MEAN_MOTION_DDOT":0},{"OBJECT_NAME":"HULIANWANG DIGUI-06","OBJECT_ID":"2024-240F","EPOCH":"2026-03-26T12:53:33.163296","MEAN_MOTION":13.24411686,"ECCENTRICITY":0.0002179,"INCLINATION":86.5036,"RA_OF_ASC_NODE":10.9916,"ARG_OF_PERICENTER":79.6489,"MEAN_ANOMALY":280.4891,"EPHEMERIS_TYPE":0,"CLASSIFICATION_TYPE":"U","NORAD_CAT_ID":62328,"ELEMENT_SET_NO":999,"REV_AT_EPOCH":6170,"BSTAR":7.9643e-5,"MEAN_MOTION_DOT":4.9e-7,"MEAN_MOTION_DDOT":0},{"OBJECT_NAME":"HULIANWANG DIGUI-07","OBJECT_ID":"2024-240G","EPOCH":"2026-03-26T12:42:50.734368","MEAN_MOTION":13.24411017,"ECCENTRICITY":0.0002104,"INCLINATION":86.5007,"RA_OF_ASC_NODE":10.8564,"ARG_OF_PERICENTER":78.9535,"MEAN_ANOMALY":281.1836,"EPHEMERIS_TYPE":0,"CLASSIFICATION_TYPE":"U","NORAD_CAT_ID":62329,"ELEMENT_SET_NO":999,"REV_AT_EPOCH":6170,"BSTAR":9.6354e-5,"MEAN_MOTION_DOT":5.6e-7,"MEAN_MOTION_DDOT":0},{"OBJECT_NAME":"HULIANWANG DIGUI-08","OBJECT_ID":"2024-240H","EPOCH":"2026-03-26T11:15:50.676192","MEAN_MOTION":13.24411198,"ECCENTRICITY":0.0002189,"INCLINATION":86.509,"RA_OF_ASC_NODE":11.264,"ARG_OF_PERICENTER":73.5888,"MEAN_ANOMALY":286.5487,"EPHEMERIS_TYPE":0,"CLASSIFICATION_TYPE":"U","NORAD_CAT_ID":62330,"ELEMENT_SET_NO":999,"REV_AT_EPOCH":6169,"BSTAR":6.9169e-5,"MEAN_MOTION_DOT":4.4e-7,"MEAN_MOTION_DDOT":0},{"OBJECT_NAME":"HULIANWANG DIGUI-09","OBJECT_ID":"2024-240J","EPOCH":"2026-03-26T12:31:51.128256","MEAN_MOTION":13.2441028,"ECCENTRICITY":0.0002069,"INCLINATION":86.5056,"RA_OF_ASC_NODE":11.1345,"ARG_OF_PERICENTER":78.4421,"MEAN_ANOMALY":281.6945,"EPHEMERIS_TYPE":0,"CLASSIFICATION_TYPE":"U","NORAD_CAT_ID":62331,"ELEMENT_SET_NO":999,"REV_AT_EPOCH":6169,"BSTAR":0.0001287,"MEAN_MOTION_DOT":7.0e-7,"MEAN_MOTION_DDOT":0},{"OBJECT_NAME":"HULIANWANG DIGUI-10","OBJECT_ID":"2024-240K","EPOCH":"2026-03-26T12:21:02.531232","MEAN_MOTION":13.24410138,"ECCENTRICITY":0.0002161,"INCLINATION":86.5086,"RA_OF_ASC_NODE":11.2657,"ARG_OF_PERICENTER":79.1518,"MEAN_ANOMALY":280.9859,"EPHEMERIS_TYPE":0,"CLASSIFICATION_TYPE":"U","NORAD_CAT_ID":62332,"ELEMENT_SET_NO":999,"REV_AT_EPOCH":6169,"BSTAR":0.00015667,"MEAN_MOTION_DOT":8.2e-7,"MEAN_MOTION_DDOT":0},{"OBJECT_NAME":"HULIANWANG DIGUI-11","OBJECT_ID":"2025-030A","EPOCH":"2026-03-26T12:54:25.003296","MEAN_MOTION":13.29324724,"ECCENTRICITY":0.0001003,"INCLINATION":50.0001,"RA_OF_ASC_NODE":172.2655,"ARG_OF_PERICENTER":241.6391,"MEAN_ANOMALY":118.438,"EPHEMERIS_TYPE":0,"CLASSIFICATION_TYPE":"U","NORAD_CAT_ID":62971,"ELEMENT_SET_NO":999,"REV_AT_EPOCH":5486,"BSTAR":5.1363e-5,"MEAN_MOTION_DOT":-1.0e-6,"MEAN_MOTION_DDOT":0},{"OBJECT_NAME":"HULIANWANG DIGUI-12","OBJECT_ID":"2025-030B","EPOCH":"2026-03-26T13:06:19.368000","MEAN_MOTION":13.29323009,"ECCENTRICITY":9.88e-5,"INCLINATION":50.0017,"RA_OF_ASC_NODE":172.3575,"ARG_OF_PERICENTER":239.8985,"MEAN_ANOMALY":120.1789,"EPHEMERIS_TYPE":0,"CLASSIFICATION_TYPE":"U","NORAD_CAT_ID":62972,"ELEMENT_SET_NO":999,"REV_AT_EPOCH":5486,"BSTAR":4.4159e-5,"MEAN_MOTION_DOT":-1.04e-6,"MEAN_MOTION_DDOT":0},{"OBJECT_NAME":"HULIANWANG DIGUI-13","OBJECT_ID":"2025-030C","EPOCH":"2026-03-26T12:42:24.437664","MEAN_MOTION":13.2932321,"ECCENTRICITY":8.57e-5,"INCLINATION":50.002,"RA_OF_ASC_NODE":172.2835,"ARG_OF_PERICENTER":230.3237,"MEAN_ANOMALY":129.756,"EPHEMERIS_TYPE":0,"CLASSIFICATION_TYPE":"U","NORAD_CAT_ID":62973,"ELEMENT_SET_NO":999,"REV_AT_EPOCH":5486,"BSTAR":5.0823e-5,"MEAN_MOTION_DOT":-1.0e-6,"MEAN_MOTION_DDOT":0},{"OBJECT_NAME":"HULIANWANG DIGUI-14","OBJECT_ID":"2025-030D","EPOCH":"2026-03-26T12:06:23.979744","MEAN_MOTION":13.29323995,"ECCENTRICITY":8.76e-5,"INCLINATION":50.0025,"RA_OF_ASC_NODE":172.1721,"ARG_OF_PERICENTER":233.3622,"MEAN_ANOMALY":126.717,"EPHEMERIS_TYPE":0,"CLASSIFICATION_TYPE":"U","NORAD_CAT_ID":62974,"ELEMENT_SET_NO":999,"REV_AT_EPOCH":5486,"BSTAR":7.1559e-5,"MEAN_MOTION_DOT":-9.1e-7,"MEAN_MOTION_DDOT":0},{"OBJECT_NAME":"HULIANWANG DIGUI-15","OBJECT_ID":"2025-030E","EPOCH":"2026-03-26T10:42:09.835488","MEAN_MOTION":13.29323715,"ECCENTRICITY":8.56e-5,"INCLINATION":50.0021,"RA_OF_ASC_NODE":172.5125,"ARG_OF_PERICENTER":236.6374,"MEAN_ANOMALY":123.4417,"EPHEMERIS_TYPE":0,"CLASSIFICATION_TYPE":"U","NORAD_CAT_ID":62975,"ELEMENT_SET_NO":999,"REV_AT_EPOCH":5485,"BSTAR":7.5732e-5,"MEAN_MOTION_DOT":-8.9e-7,"MEAN_MOTION_DDOT":0},{"OBJECT_NAME":"HULIANWANG DIGUI-16","OBJECT_ID":"2025-030F","EPOCH":"2026-03-26T11:54:17.880192","MEAN_MOTION":13.29323451,"ECCENTRICITY":8.95e-5,"INCLINATION":50.0042,"RA_OF_ASC_NODE":172.1839,"ARG_OF_PERICENTER":230.8263,"MEAN_ANOMALY":129.253,"EPHEMERIS_TYPE":0,"CLASSIFICATION_TYPE":"U","NORAD_CAT_ID":62976,"ELEMENT_SET_NO":999,"REV_AT_EPOCH":5486,"BSTAR":7.0863e-5,"MEAN_MOTION_DOT":-9.1e-7,"MEAN_MOTION_DDOT":0}]
