HULIANWANG DIGUI-01     
1 62323U 24240A   26085.49957897  .00000069  00000+0  12623-3 0  9998
2 62323  86.5054  11.1185 0002046  79.7448 280.3916 13.24410918 61698
HULIANWANG DIGUI-02     
1 62324U 24240B   26085.50702781  .00000075  00000+0  14110-3 0  9991
2 62324  86.5083  11.2519 0002019  80.6900 279.4462 13.24410377 61703
HULIANWANG DIGUI-03     
1 62325U 24240C   26085.49189744  .00000070  00000+0  12975-3 0  9990
2 62325  86.5036  11.0371 0002059  77.7654 282.3710 13.24409787 61693
HULIANWANG DIGUI-04     
1 62326U 24240D   26085.48437831  .00000055  00000+0  94291-4 0  9998
2 62326  86.5046  11.0731 0002142  76.3475 283.7897 13.24409954 61691
HULIANWANG DIGUI-05     
1 62327U 24240E   26085.47687608  .00000043  00000+0  65003-4 0  9993
2 62327  86.5098  11.3058 0002131  74.1484 285.9885 13.24410717 61698
HULIANWANG DIGUI-06     
1 62328U 24240F   26085.53718939  .00000049  00000+0  79643-4 0  9994
2 62328  86.5036  10.9916 0002179  79.6489 280.4891 13.24411686 61701
HULIANWANG DIGUI-07     
1 62329U 24240G   26085.52975387  .00000056  00000+0  96354-4 0  9992
2 62329  86.5007  10.8564 0002104  78.9535 281.1836 13.24411017 61705
HULIANWANG DIGUI-08     
1 62330U 24240H   26085.46933653  .00000044  00000+0  69169-4 0  9998
2 62330  86.5090  11.2640 0002189  73.5888 286.5487 13.24411198 61693
HULIANWANG DIGUI-09     
1 62331U 24240J   26085.52211954  .00000070  00000+0  12870-3 0  9994
2 62331  86.5056  11.1345 0002069  78.4421 281.6945 13.24410280 61697
HULIANWANG DIGUI-10     
1 62332U 24240K   26085.51461263  .00000082  00000+0  15667-3 0  9994
2 62332  86.5086  11.2657 0002161  79.1518 280.9859 13.24410138 61694
HULIANWANG DIGUI-11     
1 62971U 25030A   26085.53778939 -.00000100  00000+0  51363-4 0  9990
2 62971  50.0001 172.2655 0001003 241.6391 118.4380 13.29324724 54866
HULIANWANG DIGUI-12     
1 62972U 25030B   26085.54605750 -.00000104  00000+0  44159-4 0  9991
2 62972  50.0017 172.3575 0000988 239.8985 120.1789 13.29323009 54863
HULIANWANG DIGUI-13     
1 62973U 25030C   26085.52944951 -.00000100  00000+0  50823-4 0  9990
2 62973  50.0020 172.2835 0000857 230.3237 129.7560 13.29323210 54863
HULIANWANG DIGUI-14     
1 62974U 25030D   26085.50444421 -.00000091  00000+0  71559-4 0  9994
2 62974  50.0025 172.1721 0000876 233.3622 126.7170 13.29323995 54868
HULIANWANG DIGUI-15     
1 62975U 25030E   26085.44594717 -.00000089  00000+0  75732-4 0  9996
2 62975  50.0021 172.5125 0000856 236.6374 123.4417 13.29323715 54852
HULIANWANG DIGUI-16     
1 62976U 25030F   26085.49604028 -.00000091  00000+0  70863-4 0  9992
2 62976  50.0042 172.1839 0000895 230.8263 129.2530 13.29323451 54868
